{
  "norad_id": 57239,
  "name": "STARLINK-6330",
  "history": [
    {
      "epoch": "2026-03-28T20:35:49.763904Z",
      "apogee_km": 486.79902340936314,
      "perigee_km": 484.0439910245668,
      "latitude_deg": 2.341663072230283e-06,
      "longitude_deg": 146.66392182161843,
      "height_km": 484.98939338130424,
      "semi_major_axis_km": 6863.558507216965,
      "eccentricity": 0.0002007,
      "inclination_deg": 43.0009,
      "raan_deg": 281.8939,
      "arg_perigee_deg": 278.7471,
      "mean_anomaly_deg": 81.3153,
      "mean_motion_rev_day": 15.26788049
    },
    {
      "epoch": "2026-03-28T20:35:49.764768Z",
      "apogee_km": 486.7993635897392,
      "perigee_km": 484.0436448502951,
      "latitude_deg": 6.22777911350004e-06,
      "longitude_deg": 146.66392235595734,
      "height_km": 484.98933820371656,
      "semi_major_axis_km": 6863.558504220016,
      "eccentricity": 0.00020075,
      "inclination_deg": 43.0009,
      "raan_deg": 281.8939,
      "arg_perigee_deg": 278.7471,
      "mean_anomaly_deg": 81.3153,
      "mean_motion_rev_day": 15.2678805
    },
    {
      "epoch": "2026-03-30T05:34:14.354112Z",
      "apogee_km": 486.8159923999656,
      "perigee_km": 484.2901544529459,
      "latitude_deg": 3.027671004421355e-05,
      "longitude_deg": 2.9583197189248844,
      "height_km": 484.89031949749324,
      "semi_major_axis_km": 6863.6900734264555,
      "eccentricity": 0.000184,
      "inclination_deg": 43.0002,
      "raan_deg": 274.1449,
      "arg_perigee_deg": 290.3837,
      "mean_anomaly_deg": 69.6817,
      "mean_motion_rev_day": 15.2674415
    },
    {
      "epoch": "2026-03-30T05:34:14.354976Z",
      "apogee_km": 486.8157864892637,
      "perigee_km": 484.29036036364687,
      "latitude_deg": 2.8064691495163028e-05,
      "longitude_deg": 2.9583137500905305,
      "height_km": 484.89039120698806,
      "semi_major_axis_km": 6863.6900734264555,
      "eccentricity": 0.00018397,
      "inclination_deg": 43.0002,
      "raan_deg": 274.1449,
      "arg_perigee_deg": 290.3837,
      "mean_anomaly_deg": 69.6817,
      "mean_motion_rev_day": 15.2674415
    },
    {
      "epoch": "2026-03-30T19:42:06.801120Z",
      "apogee_km": 486.71132461047546,
      "perigee_km": 484.4030642528887,
      "latitude_deg": -2.7676703773238258e-05,
      "longitude_deg": 147.08728018427013,
      "height_km": 484.9039159141483,
      "semi_major_axis_km": 6863.694194431682,
      "eccentricity": 0.00016815,
      "inclination_deg": 42.9999,
      "raan_deg": 270.8228,
      "arg_perigee_deg": 291.8877,
      "mean_anomaly_deg": 68.1795,
      "mean_motion_rev_day": 15.26742775
    },
    {
      "epoch": "2026-03-31T19:15:13.937760Z",
      "apogee_km": 486.97837558489846,
      "perigee_km": 484.1464132147685,
      "latitude_deg": 1.619245385294283e-05,
      "longitude_deg": 147.30434675291818,
      "height_km": 484.7310220826104,
      "semi_major_axis_km": 6863.699394399833,
      "eccentricity": 0.0002063,
      "inclination_deg": 43.0019,
      "raan_deg": 265.2868,
      "arg_perigee_deg": 295.4653,
      "mean_anomaly_deg": 64.5985,
      "mean_motion_rev_day": 15.2674104
    },
    {
      "epoch": "2026-04-01T20:22:35.635584Z",
      "apogee_km": 486.7194027574169,
      "perigee_km": 484.5751565484534,
      "latitude_deg": -1.2771032063600407e-05,
      "longitude_deg": 123.52775721693133,
      "height_km": 485.0718013417036,
      "semi_major_axis_km": 6863.784279652935,
      "eccentricity": 0.0001562,
      "inclination_deg": 43.0013,
      "raan_deg": 259.3824,
      "arg_perigee_deg": 289.1965,
      "mean_anomaly_deg": 70.8717,
      "mean_motion_rev_day": 15.26712718
    },
    {
      "epoch": "2026-04-02T19:55:41.445120Z",
      "apogee_km": 486.67975998077964,
      "perigee_km": 484.4129599143225,
      "latitude_deg": 6.164316855853411e-05,
      "longitude_deg": 123.75280052973972,
      "height_km": 484.47243064565953,
      "semi_major_axis_km": 6863.68335994755,
      "eccentricity": 0.00016513,
      "inclination_deg": 43.0013,
      "raan_deg": 253.8488,
      "arg_perigee_deg": 318.6408,
      "mean_anomaly_deg": 41.4319,
      "mean_motion_rev_day": 15.2674639
    },
    {
      "epoch": "2026-04-03T19:28:49.257408Z",
      "apogee_km": 486.46746461720886,
      "perigee_km": 484.65819334229036,
      "latitude_deg": -2.1472686487920946e-05,
      "longitude_deg": 123.96690749771231,
      "height_km": 484.9213320585951,
      "semi_major_axis_km": 6863.699828979749,
      "eccentricity": 0.0001318,
      "inclination_deg": 43.0016,
      "raan_deg": 248.3128,
      "arg_perigee_deg": 297.5437,
      "mean_anomaly_deg": 62.528,
      "mean_motion_rev_day": 15.26740895
    },
    {
      "epoch": "2026-04-04T19:01:55.308864Z",
      "apogee_km": 486.47852941886504,
      "perigee_km": 484.54984343547767,
      "latitude_deg": 3.247614839896248e-05,
      "longitude_deg": 124.18891669193324,
      "height_km": 484.88093869608895,
      "semi_major_axis_km": 6863.651186427171,
      "eccentricity": 0.0001405,
      "inclination_deg": 43.0018,
      "raan_deg": 242.7772,
      "arg_perigee_deg": 295.1725,
      "mean_anomaly_deg": 64.8981,
      "mean_motion_rev_day": 15.26757125
    },
    {
      "epoch": "2026-04-05T10:44:00.183840Z",
      "apogee_km": 486.2275449332501,
      "perigee_km": 484.8557701167574,
      "latitude_deg": -3.2206235217772508e-06,
      "longitude_deg": -115.66646647438253,
      "height_km": 485.13224199197333,
      "semi_major_axis_km": 6863.6786575250035,
      "eccentricity": 9.993e-05,
      "inclination_deg": 43.0012,
      "raan_deg": 239.087,
      "arg_perigee_deg": 285.7332,
      "mean_anomaly_deg": 74.3409,
      "mean_motion_rev_day": 15.26747959
    },
    {
      "epoch": "2026-04-05T18:35:02.992416Z",
      "apogee_km": 486.4327115183178,
      "perigee_km": 484.70827364788056,
      "latitude_deg": -4.324402438053815e-05,
      "longitude_deg": 124.40466777671624,
      "height_km": 485.1944645511847,
      "semi_major_axis_km": 6863.707492583099,
      "eccentricity": 0.00012562,
      "inclination_deg": 43.0027,
      "raan_deg": 237.2423,
      "arg_perigee_deg": 280.2214,
      "mean_anomaly_deg": 79.8495,
      "mean_motion_rev_day": 15.26738338
    },
    {
      "epoch": "2026-04-07T09:50:14.584128Z",
      "apogee_km": 486.25676297870814,
      "perigee_km": 484.8169014821833,
      "latitude_deg": -1.5190583273968262e-05,
      "longitude_deg": -115.22877765635029,
      "height_km": 484.942460276786,
      "semi_major_axis_km": 6863.673832230445,
      "eccentricity": 0.00010489,
      "inclination_deg": 43.0014,
      "raan_deg": 228.0192,
      "arg_perigee_deg": 301.0132,
      "mean_anomaly_deg": 59.0616,
      "mean_motion_rev_day": 15.26749569
    },
    {
      "epoch": "2026-04-07T16:07:05.014848Z",
      "apogee_km": 486.2786566531213,
      "perigee_km": 484.87296826912916,
      "latitude_deg": -1.2057003924555857e-05,
      "longitude_deg": 148.82375875358807,
      "height_km": 485.311699677235,
      "semi_major_axis_km": 6863.7128124611245,
      "eccentricity": 0.0001024,
      "inclination_deg": 43.0028,
      "raan_deg": 226.5398,
      "arg_perigee_deg": 273.3356,
      "mean_anomaly_deg": 86.7378,
      "mean_motion_rev_day": 15.26736563
    },
    {
      "epoch": "2026-04-08T09:23:22.263360Z",
      "apogee_km": 486.3296519940259,
      "perigee_km": 484.7953406086226,
      "latitude_deg": 4.904457562689664e-05,
      "longitude_deg": -115.01626063407991,
      "height_km": 485.3581204879259,
      "semi_major_axis_km": 6863.699496301324,
      "eccentricity": 0.00011177,
      "inclination_deg": 43.0024,
      "raan_deg": 222.4809,
      "arg_perigee_deg": 268.5943,
      "mean_anomaly_deg": 91.4781,
      "mean_motion_rev_day": 15.26741006
    },
    {
      "epoch": "2026-04-09T01:05:26.708064Z",
      "apogee_km": 486.29524385173227,
      "perigee_km": 484.8080197989884,
      "latitude_deg": 3.81912203743956e-05,
      "longitude_deg": 5.130179386590602,
      "height_km": 485.3764171239454,
      "semi_major_axis_km": 6863.68863182536,
      "eccentricity": 0.00010834,
      "inclination_deg": 43.0024,
      "raan_deg": 218.7907,
      "arg_perigee_deg": 266.2978,
      "mean_anomaly_deg": 93.775,
      "mean_motion_rev_day": 15.26744631
    },
    {
      "epoch": "2026-04-10T00:38:34.124640Z",
      "apogee_km": 486.1952019615528,
      "perigee_km": 484.9274768782616,
      "latitude_deg": -1.0216659308565462e-05,
      "longitude_deg": 5.3469737850782595,
      "height_km": 485.4074780700852,
      "semi_major_axis_km": 6863.698339419907,
      "eccentricity": 9.235e-05,
      "inclination_deg": 43.0024,
      "raan_deg": 213.2557,
      "arg_perigee_deg": 263.7042,
      "mean_anomaly_deg": 96.3704,
      "mean_motion_rev_day": 15.26741392
    },
    {
      "epoch": "2026-04-11T14:19:33.702240Z",
      "apogee_km": 486.2813236222355,
      "perigee_km": 484.8495552933646,
      "latitude_deg": 3.636008819008904e-05,
      "longitude_deg": 149.69708551187622,
      "height_km": 485.41679920703973,
      "semi_major_axis_km": 6863.702439457799,
      "eccentricity": 0.0001043,
      "inclination_deg": 43.0025,
      "raan_deg": 204.4016,
      "arg_perigee_deg": 264.0169,
      "mean_anomaly_deg": 96.0564,
      "mean_motion_rev_day": 15.26740024
    },
    {
      "epoch": "2026-04-13T07:08:58.383744Z",
      "apogee_km": 486.29774067000926,
      "perigee_km": 484.84030133350916,
      "latitude_deg": 2.632252046627008e-05,
      "longitude_deg": -113.927528254544,
      "height_km": 485.474918091299,
      "semi_major_axis_km": 6863.706021001759,
      "eccentricity": 0.00010617,
      "inclination_deg": 43.0028,
      "raan_deg": 194.8064,
      "arg_perigee_deg": 259.7937,
      "mean_anomaly_deg": 100.2795,
      "mean_motion_rev_day": 15.26738829
    }
  ]
}